IRIDIUM 69              
1 25319U 98026A   25133.88748684  .00000476  00000+0  14218-3 0  9997
2 25319  86.3944 109.9181 0004273 112.6702 247.4950 14.40935101418125
IRIDIUM 73              
1 25344U 98032C   25133.87300731  .00000681  00000+0  16459-3 0  9995
2 25344  86.4423  61.3871 0002977  91.1349 269.0197 14.51676935425883
IRIDIUM 82              
1 25467U 98051A   25133.91938769  .00028090  00000+0  83450-3 0  9994
2 25467  86.3649 126.5666 0091369  68.0114 293.0812 15.30496871418712
